1 45570U 20025AR  22365.76455373  .00004814  00000-0  34180-3 0  9994
2 45570  53.0556 271.6793 0001666  73.3897 286.7274 15.06407079149939
1 45570U 20025AR  23001.16265556  .00000712  00000-0  66711-4 0  9997
2 45570  53.0555 269.8922 0001619  71.8019 288.3146 15.06387389149395
1 45570U 20025AR  23001.42805232 -.00000504  00000-0 -14966-4 0  9993
2 45570  53.0556 268.7005 0001675  71.6852 288.4319 15.06380067150033
1 45570U 20025AR  23001.42805232 -.00000504  00000-0 -14966-4 0  9993
2 45570  53.0556 268.7005 0001675  71.6852 288.4319 15.06380067149435
1 45570U 20025AR  23001.75978501 -.00002334  00000-0 -13784-3 0  9998
2 45570  53.0553 267.2105 0001616  81.1660 278.9512 15.06390431150083
1 45570U 20025AR  23002.02516739 -.00001234  00000-0 -63922-4 0  9998
2 45570  53.0552 266.0194 0001771  78.3509 281.7679 15.06396928149529
1 45570U 20025AR  23002.42324175 -.00000784  00000-0 -33702-4 0  9995
2 45570  53.0554 264.2326 0001662  71.9465 288.1705 15.06405574150180
1 45570U 20025AR  23002.42324175 -.00000784  00000-0 -33702-4 0  9995
2 45570  53.0554 264.2326 0001662  71.9465 288.1705 15.06405574149582
1 45570U 20025AR  23002.82132509  .00000851  00000-0  76005-4 0  9993
2 45570  53.0551 262.4454 0001537  70.7141 289.4014 15.06396117150244
1 45570U 20025AR  23003.21940749  .00001695  00000-0  13265-3 0  9995
2 45570  53.0547 260.6583 0001552  70.1037 290.0119 15.06396668149701
1 45570U 20025AR  23003.41844892  .00003976  00000-0  28568-3 0  9995
2 45570  53.0546 259.7649 0001550  74.3723 285.7437 15.06397986150337
1 45570U 20025AR  23004.01557504  .00001511  00000-0  12034-3 0  9997
2 45570  53.0548 257.0843 0001543  74.9928 285.1232 15.06393246149825
1 45570U 20025AR  23004.41365213  .00003522  00000-0  25517-3 0  9999
2 45570  53.0543 255.2985 0001511  77.0497 283.0661 15.06403555150489
1 45570U 20025AR  23004.41365213  .00003522  00000-0  25517-3 0  9999
2 45570  53.0543 255.2985 0001511  77.0497 283.0661 15.06403555149881
1 45570U 20025AR  23005.07710877  .00008128  00000-0  56354-3 0  9992
2 45570  53.0545 252.3193 0001564  79.1578 280.9587 15.06425269149983
1 45570U 20025AR  23005.54153460  .00006176  00000-0  43293-3 0  9992
2 45570  53.0536 250.2352 0001572  77.0870 283.0294 15.06420365150059
1 45570U 20025AR  23005.74057509  .00001449  00000-0  11611-3 0  9998
2 45570  53.0535 249.3420 0001599  67.5044 292.6114 15.06413375150688
1 45570U 20025AR  23005.74057509  .00001449  00000-0  11611-3 0  9998
2 45570  53.0535 249.3420 0001599  67.5044 292.6114 15.06413375150082
1 45570U 20025AR  23006.73578499 -.00002193  00000-0 -12842-3 0  9990
2 45570  53.0532 244.8734 0001487  81.4319 278.6838 15.06387997150237
1 45570U 20025AR  23006.80213250 -.00000762  00000-0 -32244-4 0  9998
2 45570  53.0533 244.5759 0001477  80.2258 279.8898 15.06388726150847
1 45570U 20025AR  23007.00117449  .00002748  00000-0  20335-3 0  9995
2 45570  53.0531 243.6824 0001469  79.9844 280.1310 15.06390536150874
1 45570U 20025AR  23007.93003601  .00005745  00000-0  40433-3 0  9992
2 45570  53.0529 239.5125 0001469  81.7245 278.3911 15.06395078151014
1 45570U 20025AR  23008.06273056  .00005071  00000-0  35912-3 0  9998
2 45570  53.0530 238.9174 0001445  81.5795 278.5358 15.06394384150436
1 45570U 20025AR  23008.32811837  .00003749  00000-0  27048-3 0  9993
2 45570  53.0529 237.7260 0001433  81.0066 279.1085 15.06395205151078
1 45570U 20025AR  23008.92523597  .00006839  00000-0  47743-3 0  9999
2 45570  53.0529 235.0452 0001402  80.8326 279.2821 15.06408844151167
1 45570U 20025AR  23009.32331849  .00001897  00000-0  14622-3 0  9990
2 45570  53.0520 233.2568 0000991  82.6042 277.5060 15.06396911151227
1 45570U 20025AR  23009.65505631  .00004431  00000-0  31620-3 0  9992
2 45570  53.0527 231.7685 0001109  82.2242 277.8873 15.06392887151275
1 45570U 20025AR  23009.65505631  .00004431  00000-0  31620-3 0  9992
2 45570  53.0527 231.7685 0001109  82.2242 277.8873 15.06392887150678
1 45570U 20025AR  23010.05313230  .00003960  00000-0  28452-3 0  9995
2 45570  53.0526 229.9815 0001199  74.0256 286.0865 15.06404500150730
1 45570U 20025AR  23010.31851938  .00002029  00000-0  15508-3 0  9999
2 45570  53.0522 228.7901 0001188  77.8687 282.2435 15.06402662151375
1 45570U 20025AR  23011.38007098  .00001166  00000-0  97145-4 0  9996
2 45570  53.0527 224.0239 0001368  78.9274 281.1868 15.06400898151532
1 45570U 20025AR  23011.38007098  .00001166  00000-0  97145-4 0  9996
2 45570  53.0527 224.0239 0001368  78.9274 281.1868 15.06400898150935
1 45570U 20025AR  23011.84449232  .00004073  00000-0  29205-3 0  9998
2 45570  53.0531 221.9395 0001432  80.0329 280.0821 15.06412718151602
1 45570U 20025AR  23011.97718578  .00004817  00000-0  34191-3 0  9990
2 45570  53.0528 221.3437 0001422  79.7001 280.4148 15.06412960151021
1 45570U 20025AR  23012.83970739 -.00002081  00000-0 -12092-3 0  9994
2 45570  53.0531 217.4733 0001252  82.7288 277.3843 15.06386388151753
1 45570U 20025AR  23012.83970739 -.00002081  00000-0 -12092-3 0  9994
2 45570  53.0531 217.4733 0001252  82.7288 277.3843 15.06386388151157
1 45570U 20025AR  23013.37048419 -.00000742  00000-0 -30921-4 0  9999
2 45570  53.0529 215.0900 0001298  83.9807 276.1330 15.06389882151839
1 45570U 20025AR  23013.83491411  .00001448  00000-0  11608-3 0  9996
2 45570  53.0528 213.0048 0001325  87.3548 272.7593 15.06392949151909
1 45570U 20025AR  23013.83491411  .00001448  00000-0  11608-3 0  9996
2 45570  53.0528 213.0048 0001325  87.3548 272.7593 15.06392949151303
1 45570U 20025AR  23014.89646489  .00006505  00000-0  45513-3 0  9991
2 45570  53.0530 208.2385 0001252  84.7480 275.3652 15.06405236151467
1 45570U 20025AR  23015.49358808  .00001921  00000-0  14782-3 0  9994
2 45570  53.0526 205.5580 0001277  86.4110 273.7025 15.06398720151550
1 45570U 20025AR  23015.55993589  .00001192  00000-0  98891-4 0  9996
2 45570  53.0527 205.2601 0001262  86.0787 274.0346 15.06396157152162
1 45570U 20025AR  23015.82532273  .00001927  00000-0  14824-3 0  9994
2 45570  53.0530 204.0688 0001244  85.2290 274.8840 15.06398503152207
1 45570U 20025AR  23016.55513871  .00000389  00000-0  45040-4 0  9994
2 45570  53.0531 200.7922 0001250  91.4116 268.7017 15.06397223152313
1 45570U 20025AR  23016.88687147  .00000734  00000-0  68167-4 0  9997
2 45570  53.0533 199.3030 0001247  91.1738 268.9394 15.06400202151761
1 45570U 20025AR  23017.48399952  .00000733  00000-0  68136-4 0  9993
2 45570  53.0547 196.6225 0001256  91.2232 268.8901 15.06393193152452
1 45570U 20025AR  23017.48399952  .00000733  00000-0  68136-4 0  9993
2 45570  53.0547 196.6225 0001256  91.2232 268.8901 15.06393193151855
1 45570U 20025AR  23017.88207905  .00000513  00000-0  53328-4 0  9996
2 45570  53.0545 194.8352 0001237  91.5966 268.5165 15.06396385152519
1 45570U 20025AR  23018.21381263  .00000686  00000-0  64962-4 0  9991
2 45570  53.0547 193.3460 0001231  91.1160 268.9970 15.06398177152565
1 45570U 20025AR  23018.81092538  .00001845  00000-0  14267-3 0  9991
2 45570  53.0547 190.6655 0001233  90.1346 269.9785 15.06407785152053
1 45570U 20025AR  23019.47440368  .00001135  00000-0  95068-4 0  9993
2 45570  53.0539 187.6874 0001412  89.2817 270.8334 15.06395793152757
1 45570U 20025AR  23019.47440368  .00001135  00000-0  95068-4 0  9993
2 45570  53.0539 187.6874 0001412  89.2817 270.8334 15.06395793152151
1 45570U 20025AR  23019.73979115  .00000953  00000-0  82844-4 0  9994
2 45570  53.0547 186.4963 0001169  88.0951 272.0172 15.06396648152795
1 45570U 20025AR  23020.73498463  .00001056  00000-0  89779-4 0  9997
2 45570  53.0551 182.0294 0001046  92.6856 267.4253 15.06409232152341
1 45570U 20025AR  23021.13306910  .00001707  00000-0  13346-3 0  9996
2 45570  53.0544 180.2419 0001185  90.0813 270.0312 15.06401098152406
1 45570U 20025AR  23021.73019934  .00000528  00000-0  54364-4 0  9995
2 45570  53.0562 177.5626 0001070  99.3904 260.7206 15.06393171152490
1 45570U 20025AR  23022.72539647  .00000325  00000-0  40711-4 0  9999
2 45570  53.0552 173.0926 0001034  72.2237 287.8865 15.06406188152643
1 45570U 20025AR  23023.38887328  .00002039  00000-0  15579-3 0  9991
2 45570  53.0556 170.1160 0001159  62.5375 297.5731 15.06391103152749
1 45570U 20025AR  23024.71580365  .00001065  00000-0  90369-4 0  9999
2 45570  53.0542 164.1578 0001162  76.0562 284.0556 15.06403648152948
1 45570U 20025AR  23025.11388860  .00000514  00000-0  53410-4 0  9994
2 45570  53.0545 162.3708 0000985  87.2353 272.8749 15.06396510153006
1 45570U 20025AR  23025.57831902 -.00000041  00000-0  16133-4 0  9991
2 45570  53.0537 160.2858 0001318  95.2530 264.8609 15.06396185153674
1 45570U 20025AR  23025.64466568  .00000147  00000-0  28749-4 0  9993
2 45570  53.0529 159.9880 0001370  91.9274 268.1871 15.06396136153686
1 45570U 20025AR  23026.57351822  .00001104  00000-0  93001-4 0  9999
2 45570  53.0547 155.8198 0001171  87.5960 272.5163 15.06399977153820
1 45570U 20025AR  23026.57351822  .00001104  00000-0  93001-4 0  9999
2 45570  53.0547 155.8198 0001171  87.5960 272.5163 15.06399977153224
1 45570U 20025AR  23027.03795381 -.00000730  00000-0 -30160-4 0  9996
2 45570  53.0544 153.7327 0001088  85.8550 274.2564 15.06393112153291
1 45570U 20025AR  23027.56873784  .00000138  00000-0  28158-4 0  9992
2 45570  53.0547 151.3523 0001160  97.4013 262.7107 15.06383774153377
1 45570U 20025AR  23028.03315912  .00000872  00000-0  77449-4 0  9991
2 45570  53.0548 149.2677 0001109  93.1795 266.9321 15.06395591153449
1 45570U 20025AR  23028.56392880  .00001223  00000-0  10095-3 0  9992
2 45570  53.0550 146.8847 0001127  97.0505 263.0612 15.06403505154128
1 45570U 20025AR  23028.69661874  .00002031  00000-0  15519-3 0  9992
2 45570  53.0554 146.2890 0001248 110.0333 250.0791 15.06407756154141
1 45570U 20025AR  23028.69661874  .00002031  00000-0  15519-3 0  9992
2 45570  53.0554 146.2890 0001248 110.0333 250.0791 15.06407756153544
1 45570U 20025AR  23029.36009859  .00002174  00000-0  16486-3 0  9998
2 45570  53.0568 143.3112 0001246 102.3987 257.7142 15.06390467153646
1 45570U 20025AR  23029.62548104  .00002184  00000-0  16543-3 0  9993
2 45570  53.0557 142.1190 0001118  99.5077 260.6039 15.06399628154289
1 45570U 20025AR  23029.62548104  .00002184  00000-0  16543-3 0  9993
2 45570  53.0557 142.1190 0001118  99.5077 260.6039 15.06399628153682
1 45570U 20025AR  23030.28895359  .00000139  00000-0  28212-4 0  9999
2 45570  53.0562 139.1413 0001240  87.0330 273.0801 15.06398805153784
1 45570U 20025AR  23030.48799068  .00000541  00000-0  55175-4 0  9996
2 45570  53.0557 138.2475 0001242  86.8903 273.2228 15.06402260154418
1 45570U 20025AR  23031.48319325 -.00001441  00000-0 -77842-4 0  9998
2 45570  53.0558 133.7815 0001568  96.3949 263.7219 15.06404162154567
1 45570U 20025AR  23031.48319325 -.00001441  00000-0 -77842-4 0  9998
2 45570  53.0558 133.7815 0001568  96.3949 263.7219 15.06404162153960
